[{"OBJECT_NAME":"STARLINK-2674","OBJECT_ID":"2021-038B","EPOCH":"2026-03-09T23:26:52.086336","MEAN_MOTION":15.30192431,"ECCENTRICITY":0.00014577,"INCLINATION":53.1599,"RA_OF_ASC_NODE":356.8683,"ARG_OF_PERICENTER":96.0218,"MEAN_ANOMALY":264.0949,"EPHEMERIS_TYPE":0,"CLASSIFICATION_TYPE":"U","NORAD_CAT_ID":48354,"ELEMENT_SET_NO":999,"REV_AT_EPOCH":26712,"BSTAR":2.246718e-5,"MEAN_MOTION_DOT":3.06e-6,"MEAN_MOTION_DDOT":0},{"OBJECT_NAME":"OBJECT D","OBJECT_ID":"2024-085D","EPOCH":"2026-03-09T22:53:13.410816","MEAN_MOTION":15.33413141,"ECCENTRICITY":0.00152451,"INCLINATION":97.3312,"RA_OF_ASC_NODE":145.3953,"ARG_OF_PERICENTER":54.9672,"MEAN_ANOMALY":305.2998,"EPHEMERIS_TYPE":0,"CLASSIFICATION_TYPE":"U","NORAD_CAT_ID":59680,"ELEMENT_SET_NO":999,"REV_AT_EPOCH":10244,"BSTAR":0.00049264705,"MEAN_MOTION_DOT":0.00015903,"MEAN_MOTION_DDOT":0}]
